[{"OBJECT_NAME":"SKYSAT-C6","OBJECT_ID":"2017-068F","EPOCH":"2026-03-09T21:33:49.392576","MEAN_MOTION":15.32504544,"ECCENTRICITY":0.00036369,"INCLINATION":97.44,"RA_OF_ASC_NODE":205.7173,"ARG_OF_PERICENTER":127.5085,"MEAN_ANOMALY":232.6488,"EPHEMERIS_TYPE":0,"CLASSIFICATION_TYPE":"U","NORAD_CAT_ID":42992,"ELEMENT_SET_NO":999,"REV_AT_EPOCH":46710,"BSTAR":0.00039699196,"MEAN_MOTION_DOT":0.0001239,"MEAN_MOTION_DDOT":0},{"OBJECT_NAME":"STARLINK-35774","OBJECT_ID":"2025-247U","EPOCH":"2026-03-09T15:15:31.901760","MEAN_MOTION":15.30182502,"ECCENTRICITY":0.0001097,"INCLINATION":53.1571,"RA_OF_ASC_NODE":191.8153,"ARG_OF_PERICENTER":84.7187,"MEAN_ANOMALY":275.3939,"EPHEMERIS_TYPE":0,"CLASSIFICATION_TYPE":"U","NORAD_CAT_ID":66283,"ELEMENT_SET_NO":999,"REV_AT_EPOCH":2102,"BSTAR":0.00082924,"MEAN_MOTION_DOT":0.00024267,"MEAN_MOTION_DDOT":0}]
